BEIDOU-2 IGSO-1 (C06)   
1 36828U 10036A   23154.97871837 -.00000031  00000+0  00000+0 0  9995
2 36828  54.2317 173.0116 0038040 191.9339 346.5113  1.00295803 47103
BEIDOU-2 G4 (C04)       
1 37210U 10057A   23155.10396774 -.00000095  00000+0  00000+0 0  9992
2 37210   0.9865  55.2725 0001756 147.1947 247.2866  1.00271952 46160
BEIDOU-2 IGSO-2 (C07)   
1 37256U 10068A   23154.86045882 -.00000214  00000+0  00000+0 0  9990
2 37256  49.5797 285.4258 0027010 201.5249 181.6660  1.00255736 45661
BEIDOU-2 IGSO-3 (C08)   
1 37384U 11013A   23154.51585856 -.00000199  00000+0  00000+0 0  9997
2 37384  60.8004  50.8023 0022729 179.5427 313.0964  1.00262298 44543
BEIDOU-2 IGSO-4 (C09)   
1 37763U 11038A   23154.45486836  .00000095  00000+0  00000+0 0  9990
2 37763  54.5044 175.5419 0111179 228.4002 103.7476  1.00292572 43519
BEIDOU-2 IGSO-5 (C10)   
1 37948U 11073A   23153.20379128 -.00000160  00000+0  00000+0 0  9995
2 37948  49.7052 285.1048 0088762 218.5680 273.1015  1.00254438 41998
BEIDOU-2 G5 (C05)       
1 38091U 12008A   23155.04066846  .00000073  00000+0  00000+0 0  9990
2 38091   1.4999  66.3673 0003646 285.7007 333.5362  1.00274851 41350
BEIDOU-2 M3 (C11)       
1 38250U 12018A   23154.30493747 -.00000062  00000+0  00000+0 0  9999
2 38250  56.5601 341.9539 0020322 258.4250 101.3666  1.86231152 75613
BEIDOU-2 M4 (C12)       
1 38251U 12018B   23153.70013697 -.00000062  00000+0  00000+0 0  9995
2 38251  56.4724 341.2740 0011228 261.2906  98.6030  1.86234180 75269
BEIDOU-2 M6 (C14)       
1 38775U 12050B   23153.94682889  .00000003  00000+0  00000+0 0  9997
2 38775  55.6272  99.9016 0014726 328.9445  30.9279  1.86231175 72630
BEIDOU-2 G6 (C02)       
1 38953U 12059A   23155.44599715 -.00000160  00000+0  00000+0 0  9991
2 38953   1.8022  82.3841 0010956 317.2090  97.5616  1.00274402 38939
BEIDOU-3S IGSO-1S (C31) 
1 40549U 15019A   23154.39979847 -.00000194  00000+0  00000+0 0  9992
2 40549  51.2713 308.6583 0038344 191.5433 352.0958  1.00276995 29949
BEIDOU-3S M2S (C57)     
1 40748U 15037A   23154.37317020 -.00000064  00000+0  00000+0 0  9996
2 40748  55.7152 339.9034 0004744  47.6996 312.3572  1.86233220 53458
BEIDOU-3S M1S (C58)     
1 40749U 15037B   23154.17341901 -.00000064  00000+0  00000+0 0  9990
2 40749  55.7184 339.9012 0004073   1.8741 358.1446  1.86232928 53457
BEIDOU-3S IGSO-2S (C56) 
1 40938U 15053A   23154.82406978 -.00000140  00000+0  00000+0 0  9991
2 40938  50.9533 271.8193 0047478 194.1225 177.2187  1.00258251 28227
BEIDOU-2 IGSO-6 (C13)   
1 41434U 16021A   23154.81716122 -.00000162  00000+0  00000+0 0  9997
2 41434  58.6134  49.2141 0045711 224.0128   6.0373  1.00257754 26348
BEIDOU-2 G7 (C03)       
1 41586U 16037A   23155.09632512 -.00000337  00000+0  00000+0 0  9997
2 41586   1.6609  66.7562 0009163 354.7064 336.0196  1.00267929 25661
BEIDOU-3 M1 (C19)       
1 43001U 17069A   23154.25024310  .00000002  00000+0  00000+0 0  9993
2 43001  55.7792  99.9387 0011706 299.4806  60.3620  1.86231446 37937
BEIDOU-3 M2 (C20)       
1 43002U 17069B   23155.26066043  .00000002  00000+0  00000+0 0  9995
2 43002  55.7793  99.9404 0009772 319.6036  40.2834  1.86231089 37947
BEIDOU-3 M7 (C27)       
1 43107U 18003A   23155.01213232 -.00000066  00000+0  00000+0 0  9998
2 43107  55.1701 340.6440 0005464  66.7809 293.2922  1.86232390 36701
BEIDOU-3 M8 (C28)       
1 43108U 18003B   23154.94947260 -.00000066  00000+0  00000+0 0  9995
2 43108  55.1632 340.6336 0001965 253.8074 106.1865  1.86230856 36707
BEIDOU-3 M4 (C22)       
1 43207U 18018A   23154.31823046  .00000002  00000+0  00000+0 0  9996
2 43207  55.7381 100.0386 0007045 339.0177  20.9124  1.86231388 36075
BEIDOU-3 M3 (C21)       
1 43208U 18018B   23154.38481912  .00000002  00000+0  00000+0 0  9996
2 43208  55.7376 100.0409 0009602 309.6390  50.2354  1.86231299 36079
BEIDOU-3 M9 (C29)       
1 43245U 18029A   23155.14523074 -.00000066  00000+0  00000+0 0  9991
2 43245  55.0686 338.3815 0001019  79.1150 280.9079  1.86232456 35241
BEIDOU-3 M10 (C30)      
1 43246U 18029B   23154.53847023 -.00000065  00000+0  00000+0 0  9996
2 43246  55.0659 338.4309 0004261  19.0358 340.9936  1.86232835 35213
BEIDOU-2 IGSO-7 (C16)   
1 43539U 18057A   23154.97915418 -.00000034  00000+0  00000+0 0  9990
2 43539  55.1039 172.6413 0061437 231.4450 311.9056  1.00258992 18036
BEIDOU-3 M5 (C23)       
1 43581U 18062A   23154.22230365  .00000074  00000+0  00000+0 0  9995
2 43581  54.1903 220.0919 0004678 269.5024  90.5368  1.86231895 32965
BEIDOU-3 M6 (C24)       
1 43582U 18062B   23155.16099125  .00000074  00000+0  00000+0 0  9997
2 43582  54.1899 220.0494 0004079 358.5101   1.5843  1.86229455 32989
BEIDOU-3 M12 (C26)      
1 43602U 18067A   23155.09824974  .00000076  00000+0  00000+0 0  9997
2 43602  54.2766 218.6979 0006524  12.4079 347.7047  1.86231712 32478
BEIDOU-3 M11 (C25)      
1 43603U 18067B   23154.69508957  .00000077  00000+0  00000+0 0  9994
2 43603  54.2738 218.6776 0003642 356.5289   3.5643  1.86231618 32481
BEIDOU-3 M13 (C32)      
1 43622U 18072A   23155.18996402  .00000001  00000+0  00000+0 0  9999
2 43622  55.7076  99.5520 0008212 298.0803  61.7965  1.86231545 32006
BEIDOU-3 M14 (C33)      
1 43623U 18072B   23155.05542324  .00000001  00000+0  00000+0 0  9996
2 43623  55.7094  99.5491 0006228 319.8956  40.0180  1.86231565 32001
BEIDOU-3 M16 (C35)      
1 43647U 18078A   23154.14176388 -.00000065  00000+0  00000+0 0  9991
2 43647  54.9648 338.5457 0007695  18.8044 341.2389  1.86227259 31487
BEIDOU-3 M15 (C34)      
1 43648U 18078B   23154.27487629 -.00000065  00000+0  00000+0 0  9999
2 43648  54.9606 338.5455 0004889  34.0529 325.9930  1.86232197 31512
BEIDOU-3 G1 (C59)       
1 43683U 18085A   23154.91091076 -.00000261  00000+0  00000+0 0  9992
2 43683   1.3211 131.2691 0004767 322.2467 266.4651  1.00266030 16934
BEIDOU-3 M17 (C36)      
1 43706U 18093A   23154.42372956  .00000075  00000+0  00000+0 0  9994
2 43706  54.2726 219.9956 0009854 274.9657  85.0156  1.86231976 30859
BEIDOU-3 M18 (C37)      
1 43707U 18093B   23154.28858553  .00000075  00000+0  00000+0 0  9991
2 43707  54.2734 219.9916 0007822 300.2888  59.7271  1.86229750 30861
BEIDOU-3 IGSO-1 (C38)   
1 44204U 19023A   23154.62195854 -.00000233  00000+0  00000+0 0  9991
2 44204  57.0789  49.2245 0018642 202.3852 341.5547  1.00256622 15213
BEIDOU-2 G8 (C01)       
1 44231U 19027A   23154.77106087 -.00000230  00000+0  00000+0 0  9998
2 44231   1.7272  81.2237 0004490 120.1184 112.7370  1.00269654 14955
BEIDOU-3 IGSO-2 (C39)   
1 44337U 19035A   23155.46694627 -.00000046  00000+0  00000+0 0  9998
2 44337  55.1464 168.6001 0030807 202.6852 165.7117  1.00249359 14582
BEIDOU-3 M24 (C46)      
1 44542U 19061A   23154.89795780  .00000075  00000+0  00000+0 0  9994
2 44542  54.4998 220.1905 0007452 337.4900  22.5724  1.86231185 25131
BEIDOU-3 M23 (C45)      
1 44543U 19061B   23154.49319875  .00000075  00000+0  00000+0 0  9998
2 44543  54.4981 220.1739 0005017 318.9939  41.4649  1.86231608 25136
BEIDOU-3 IGSO-3 (C40)   
1 44709U 19073A   23152.79259417 -.00000209  00000+0  00000+0 0  9991
2 44709  56.6936 292.7406 0032089 178.4936 181.4424  1.00256524 13318
BEIDOU-3 M22 (C44)      
1 44793U 19078A   23154.74291692 -.00000066  00000+0  00000+0 0  9998
2 44793  54.8130 338.5036 0006727  27.0473 333.0006  1.86232144 23992
BEIDOU-3 M21 (C43)      
1 44794U 19078B   23154.87371139 -.00000066  00000+0  00000+0 0  9998
2 44794  54.7870 338.4832 0004561  26.9700 333.0661  1.86232612 23998
BEIDOU-3 M19 (C41)      
1 44864U 19090A   23154.30420508  .00000002  00000+0  00000+0 0  9992
2 44864  55.6414  99.7740 0018639 278.6545 253.5478  1.86231707 23568
BEIDOU-3 M20 (C42)      
1 44865U 19090B   23154.66467962  .00000002  00000+0  00000+0 0  9997
2 44865  55.6436  99.7945 0016810 291.4123 212.2760  1.86231618 23549
BEIDOU-3 G2 (C60)       
1 45344U 20017A   23154.75813317 -.00000124  00000+0  00000+0 0  9996
2 45344   2.0084  11.2780 0003265  92.3384 141.2860  1.00270311 12134
BEIDOU-3 G3 (C61)       
1 45807U 20040A   23155.05104108 -.00000336  00000+0  00000+0 0  9996
2 45807   0.7287 327.8603 0005902 318.6956  94.6410  1.00268966 10961
BEIDOU-3 G4             
1 56564U 23066A   23154.77411162 -.00000091  00000+0  00000+0 0  9996
2 56564   3.0725 289.3629 0006888 183.4369 217.8568  1.00272163   276
